[
    {
        "name": "NOAA 15",
        "first tle line": "1 25338U 98030A   25315.20781439  .00000317  00000+0  14756-3 0  9997",
        "second tle line": "2 25338  98.5252 336.5527 0009115 265.8957  94.1182 14.27051233430205"
    },
    {
        "name": "NOAA 18",
        "first tle line": "1 28654U 05018A   25315.27464890  .00000223  00000+0  14120-3 0  9992",
        "second tle line": "2 28654  98.8321  32.9315 0014962  53.2364 307.0179 14.13664430 55522"
    },
    {
        "name": "NOAA 19",
        "first tle line": "1 33591U 09005A   25315.23525935  .00000130  00000+0  93162-4 0  9993",
        "second tle line": "2 33591  98.9806  20.6793 0012797 287.9197  72.0579 14.13425829863690"
    },
    {
        "name": "NOAA 20 (JPSS-1)",
        "first tle line": "1 43013U 17073A   25315.27169214  .00000211  00000+0  12100-3 0  9997",
        "second tle line": "2 43013  98.7548 251.9205 0001449 132.7058 227.4240 14.19512800413552"
    },
    {
        "name": "NOAA 21 (JPSS-2)",
        "first tle line": "1 54234U 22150A   25315.30674043  .00000227  00000+0  12867-3 0  9998",
        "second tle line": "2 54234  98.7412 252.0149 0002734  94.2594 265.8895 14.19510467155634"
    },
    {
        "name": "METEOR-M 2",
        "first tle line": "1 40069U 14037A   25315.28209833  .00000327  00000+0  16899-3 0  9992",
        "second tle line": "2 40069  98.4868 294.0777 0004969 319.4299  40.6508 14.21367510588368"
    },
    {
        "name": "METEOR-M2 2",
        "first tle line": "1 44387U 19038A   25315.26467597  .00000361  00000+0  17626-3 0  9993",
        "second tle line": "2 44387  98.8939 294.6133 0000445 340.0628  20.0532 14.24270800330273"
    }
]